IRIDIUM 112             
1 41925U 17003J   24135.23803046  .00000937  00000+0  32745-3 0  9995
2 41925  86.4003  47.5537 0003747  76.4253 283.7360 14.34214204383809
IRIDIUM 111             
1 41926U 17003K   24135.15557540  .00000461  00000+0  15756-3 0  9997
2 41926  86.3988  47.6451 0002440  80.0478 280.0993 14.34215525383816
IRIDIUM 113             
1 42803U 17039A   24135.41461005  .00000127  00000+0  38293-4 0  9991
2 42803  86.3939 281.3041 0002210  89.9226 270.2223 14.34215227361714
IRIDIUM 123             
1 42804U 17039B   24135.03748179  .00000500  00000+0  17135-3 0  9996
2 42804  86.3926 312.9829 0002151  83.4973 276.6467 14.34217100360427
IRIDIUM 120             
1 42805U 17039C   24135.47803650  .00000288  00000+0  95659-4 0  9992
2 42805  86.3929 281.1592 0001902  96.3833 263.7580 14.34217308361712
IRIDIUM 115             
1 42806U 17039D   24135.16203509  .00001369  00000+0  40091-3 0  9996
2 42806  86.4465 281.3112 0002264  87.6221 272.5239 14.43292329364061
IRIDIUM 118             
1 42807U 17039E   24134.79012568  .00000206  00000+0  66407-4 0  9997
2 42807  86.3935 313.0875 0002329  92.9442 267.2020 14.34219053360392
IRIDIUM 117             
1 42808U 17039F   24134.73938226  .00000454  00000+0  15498-3 0  9998
2 42808  86.3933 313.0732 0002075  85.5479 274.5954 14.34217666360406
